ONEWEB-0168             
1 48068U 21025AC  26062.78824094 -.00000208  00000+0 -60356-3 0  9998
2 48068  87.9052 341.1761 0001935  76.9778 283.1567 13.13469277239722
ONEWEB-0173             
1 48069U 21025AD  26062.77978393 -.00000082  00000+0 -25917-3 0  9994
2 48069  87.9048 341.1846 0002099  82.5323 277.6045 13.13468797239964
ONEWEB-0171             
1 48070U 21025AE  26062.81700736 -.00000195  00000+0 -56944-3 0  9994
2 48070  87.9037 341.1901 0001769  82.0937 278.0393 13.13470346239789
ONEWEB-0172             
1 48071U 21025AF  26062.79670666 -.00000300  00000+0 -85515-3 0  9994
2 48071  87.9039 341.1815 0001881  82.3237 277.8106 13.13469280240671
ONEWEB-0174             
1 48072U 21025AG  26062.77808648 -.00000061  00000+0 -20204-3 0  9994
2 48072  87.9040 341.1866 0001824  73.9092 286.2237 13.13468890239990
ONEWEB-0175             
1 48073U 21025AH  26062.80855770 -.00000120  00000+0 -36450-3 0  9993
2 48073  87.9046 341.1554 0001797  89.8595 270.2741 13.13469558239652
ONEWEB-0177             
1 48074U 21025AJ  26062.82040588  .00000163  00000+0  41235-3 0  9991
2 48074  87.9049 341.1742 0001960  76.0922 284.0425 13.13469792239842
ONEWEB-0178             
1 48075U 21025AK  26062.83917249  .00000285  00000+0  74679-3 0  9993
2 48075  87.9032 341.1988 0001897  86.3304 273.8042 13.13469255239894
ONEWEB-0108             
1 48076U 21025AL  26062.79839404 -.00000342  00000+0 -97121-3 0  9998
2 48076  87.9047 341.1670 0001578  72.4177 287.7124 13.13469302239819
ONEWEB-0169             
1 48077U 21025AM  26062.83056083  .00000338  00000+0  89026-3 0  9996
2 48077  87.9040 341.1769 0001615  74.1429 285.9878 13.13469324238474
ONEWEB-0176             
1 48210U 21031A   26062.67973784  .00000264  00000+0  67793-3 0  9995
2 48210  87.8999 310.7500 0001711  82.8891 277.2433 13.14501585234458
ONEWEB-0184             
1 48211U 21031B   26062.72889396  .00000016  00000+0  91304-5 0  9999
2 48211  87.9010 310.7296 0002049 105.2437 254.8919 13.14502199234437
ONEWEB-0179             
1 48212U 21031C   26062.69956002 -.00000058  00000+0 -19205-3 0  9991
2 48212  87.9002 310.7384 0001799  73.3043 286.8284 13.14501848234470
ONEWEB-0180             
1 48213U 21031D   26062.73206678  .00000099  00000+0  23340-3 0  9992
2 48213  87.9004 310.7330 0001973  81.5855 278.5498 13.14501926234360
ONEWEB-0218             
1 48214U 21031E   26062.75427399  .00000257  00000+0  65914-3 0  9999
2 48214  87.9003 310.7281 0002285  99.1151 261.0237 13.14501488234525
ONEWEB-0209             
1 48215U 21031F   26062.74316540  .00000237  00000+0  60549-3 0  9991
2 48215  87.8989 310.7578 0001851  75.8718 284.2617 13.14502195234520
