[{"OBJECT_NAME":"ONEWEB-0168","OBJECT_ID":"2021-025AC","EPOCH":"2026-03-03T18:55:04.017216","MEAN_MOTION":13.13469277,"ECCENTRICITY":0.0001935,"INCLINATION":87.9052,"RA_OF_ASC_NODE":341.1761,"ARG_OF_PERICENTER":76.9778,"MEAN_ANOMALY":283.1567,"EPHEMERIS_TYPE":0,"CLASSIFICATION_TYPE":"U","NORAD_CAT_ID":48068,"ELEMENT_SET_NO":999,"REV_AT_EPOCH":23972,"BSTAR":-0.00060355957,"MEAN_MOTION_DOT":-2.08e-6,"MEAN_MOTION_DDOT":0},{"OBJECT_NAME":"ONEWEB-0173","OBJECT_ID":"2021-025AD","EPOCH":"2026-03-03T18:42:53.331552","MEAN_MOTION":13.13468797,"ECCENTRICITY":0.00020993,"INCLINATION":87.9048,"RA_OF_ASC_NODE":341.1846,"ARG_OF_PERICENTER":82.5323,"MEAN_ANOMALY":277.6045,"EPHEMERIS_TYPE":0,"CLASSIFICATION_TYPE":"U","NORAD_CAT_ID":48069,"ELEMENT_SET_NO":999,"REV_AT_EPOCH":23996,"BSTAR":-0.00025916878,"MEAN_MOTION_DOT":-8.2e-7,"MEAN_MOTION_DDOT":0},{"OBJECT_NAME":"ONEWEB-0171","OBJECT_ID":"2021-025AE","EPOCH":"2026-03-03T19:36:29.435904","MEAN_MOTION":13.13470346,"ECCENTRICITY":0.00017691,"INCLINATION":87.9037,"RA_OF_ASC_NODE":341.1901,"ARG_OF_PERICENTER":82.0937,"MEAN_ANOMALY":278.0393,"EPHEMERIS_TYPE":0,"CLASSIFICATION_TYPE":"U","NORAD_CAT_ID":48070,"ELEMENT_SET_NO":999,"REV_AT_EPOCH":23978,"BSTAR":-0.00056944015,"MEAN_MOTION_DOT":-1.95e-6,"MEAN_MOTION_DDOT":0},{"OBJECT_NAME":"ONEWEB-0172","OBJECT_ID":"2021-025AF","EPOCH":"2026-03-03T19:07:15.455424","MEAN_MOTION":13.1346928,"ECCENTRICITY":0.00018814,"INCLINATION":87.9039,"RA_OF_ASC_NODE":341.1815,"ARG_OF_PERICENTER":82.3237,"MEAN_ANOMALY":277.8106,"EPHEMERIS_TYPE":0,"CLASSIFICATION_TYPE":"U","NORAD_CAT_ID":48071,"ELEMENT_SET_NO":999,"REV_AT_EPOCH":24067,"BSTAR":-0.00085515134,"MEAN_MOTION_DOT":-3.0e-6,"MEAN_MOTION_DDOT":0},{"OBJECT_NAME":"ONEWEB-0174","OBJECT_ID":"2021-025AG","EPOCH":"2026-03-03T18:40:26.671872","MEAN_MOTION":13.1346889,"ECCENTRICITY":0.00018248,"INCLINATION":87.904,"RA_OF_ASC_NODE":341.1866,"ARG_OF_PERICENTER":73.9092,"MEAN_ANOMALY":286.2237,"EPHEMERIS_TYPE":0,"CLASSIFICATION_TYPE":"U","NORAD_CAT_ID":48072,"ELEMENT_SET_NO":999,"REV_AT_EPOCH":23999,"BSTAR":-0.00020203888,"MEAN_MOTION_DOT":-6.1e-7,"MEAN_MOTION_DDOT":0},{"OBJECT_NAME":"ONEWEB-0175","OBJECT_ID":"2021-025AH","EPOCH":"2026-03-03T19:24:19.385280","MEAN_MOTION":13.13469558,"ECCENTRICITY":0.00017974,"INCLINATION":87.9046,"RA_OF_ASC_NODE":341.1554,"ARG_OF_PERICENTER":89.8595,"MEAN_ANOMALY":270.2741,"EPHEMERIS_TYPE":0,"CLASSIFICATION_TYPE":"U","NORAD_CAT_ID":48073,"ELEMENT_SET_NO":999,"REV_AT_EPOCH":23965,"BSTAR":-0.0003644975,"MEAN_MOTION_DOT":-1.2e-6,"MEAN_MOTION_DDOT":0},{"OBJECT_NAME":"ONEWEB-0177","OBJECT_ID":"2021-025AJ","EPOCH":"2026-03-03T19:41:23.068032","MEAN_MOTION":13.13469792,"ECCENTRICITY":0.00019606,"INCLINATION":87.9049,"RA_OF_ASC_NODE":341.1742,"ARG_OF_PERICENTER":76.0922,"MEAN_ANOMALY":284.0425,"EPHEMERIS_TYPE":0,"CLASSIFICATION_TYPE":"U","NORAD_CAT_ID":48074,"ELEMENT_SET_NO":999,"REV_AT_EPOCH":23984,"BSTAR":0.0004123513,"MEAN_MOTION_DOT":1.63e-6,"MEAN_MOTION_DDOT":0},{"OBJECT_NAME":"ONEWEB-0178","OBJECT_ID":"2021-025AK","EPOCH":"2026-03-03T20:08:24.503136","MEAN_MOTION":13.13469255,"ECCENTRICITY":0.00018976,"INCLINATION":87.9032,"RA_OF_ASC_NODE":341.1988,"ARG_OF_PERICENTER":86.3304,"MEAN_ANOMALY":273.8042,"EPHEMERIS_TYPE":0,"CLASSIFICATION_TYPE":"U","NORAD_CAT_ID":48075,"ELEMENT_SET_NO":999,"REV_AT_EPOCH":23989,"BSTAR":0.00074678746,"MEAN_MOTION_DOT":2.85e-6,"MEAN_MOTION_DDOT":0},{"OBJECT_NAME":"ONEWEB-0108","OBJECT_ID":"2021-025AL","EPOCH":"2026-03-03T19:09:41.245056","MEAN_MOTION":13.13469302,"ECCENTRICITY":0.00015785,"INCLINATION":87.9047,"RA_OF_ASC_NODE":341.167,"ARG_OF_PERICENTER":72.4177,"MEAN_ANOMALY":287.7124,"EPHEMERIS_TYPE":0,"CLASSIFICATION_TYPE":"U","NORAD_CAT_ID":48076,"ELEMENT_SET_NO":999,"REV_AT_EPOCH":23981,"BSTAR":-0.00097120592,"MEAN_MOTION_DOT":-3.42e-6,"MEAN_MOTION_DDOT":0},{"OBJECT_NAME":"ONEWEB-0169","OBJECT_ID":"2021-025AM","EPOCH":"2026-03-03T19:56:00.455712","MEAN_MOTION":13.13469324,"ECCENTRICITY":0.00016159,"INCLINATION":87.904,"RA_OF_ASC_NODE":341.1769,"ARG_OF_PERICENTER":74.1429,"MEAN_ANOMALY":285.9878,"EPHEMERIS_TYPE":0,"CLASSIFICATION_TYPE":"U","NORAD_CAT_ID":48077,"ELEMENT_SET_NO":999,"REV_AT_EPOCH":23847,"BSTAR":0.00089025998,"MEAN_MOTION_DOT":3.38e-6,"MEAN_MOTION_DDOT":0},{"OBJECT_NAME":"ONEWEB-0176","OBJECT_ID":"2021-031A","EPOCH":"2026-03-03T16:18:49.349376","MEAN_MOTION":13.14501585,"ECCENTRICITY":0.0001711,"INCLINATION":87.8999,"RA_OF_ASC_NODE":310.75,"ARG_OF_PERICENTER":82.8891,"MEAN_ANOMALY":277.2433,"EPHEMERIS_TYPE":0,"CLASSIFICATION_TYPE":"U","NORAD_CAT_ID":48210,"ELEMENT_SET_NO":999,"REV_AT_EPOCH":23445,"BSTAR":0.00067793046,"MEAN_MOTION_DOT":2.64e-6,"MEAN_MOTION_DDOT":0},{"OBJECT_NAME":"ONEWEB-0184","OBJECT_ID":"2021-031B","EPOCH":"2026-03-03T17:29:36.438144","MEAN_MOTION":13.14502199,"ECCENTRICITY":0.00020492,"INCLINATION":87.901,"RA_OF_ASC_NODE":310.7296,"ARG_OF_PERICENTER":105.2437,"MEAN_ANOMALY":254.8919,"EPHEMERIS_TYPE":0,"CLASSIFICATION_TYPE":"U","NORAD_CAT_ID":48211,"ELEMENT_SET_NO":999,"REV_AT_EPOCH":23443,"BSTAR":9.130405e-6,"MEAN_MOTION_DOT":1.6e-7,"MEAN_MOTION_DDOT":0},{"OBJECT_NAME":"ONEWEB-0179","OBJECT_ID":"2021-031C","EPOCH":"2026-03-03T16:47:21.985728","MEAN_MOTION":13.14501848,"ECCENTRICITY":0.00017993,"INCLINATION":87.9002,"RA_OF_ASC_NODE":310.7384,"ARG_OF_PERICENTER":73.3043,"MEAN_ANOMALY":286.8284,"EPHEMERIS_TYPE":0,"CLASSIFICATION_TYPE":"U","NORAD_CAT_ID":48212,"ELEMENT_SET_NO":999,"REV_AT_EPOCH":23447,"BSTAR":-0.00019204571,"MEAN_MOTION_DOT":-5.8e-7,"MEAN_MOTION_DDOT":0},{"OBJECT_NAME":"ONEWEB-0180","OBJECT_ID":"2021-031D","EPOCH":"2026-03-03T17:34:10.569792","MEAN_MOTION":13.14501926,"ECCENTRICITY":0.00019735,"INCLINATION":87.9004,"RA_OF_ASC_NODE":310.733,"ARG_OF_PERICENTER":81.5855,"MEAN_ANOMALY":278.5498,"EPHEMERIS_TYPE":0,"CLASSIFICATION_TYPE":"U","NORAD_CAT_ID":48213,"ELEMENT_SET_NO":999,"REV_AT_EPOCH":23436,"BSTAR":0.00023340238,"MEAN_MOTION_DOT":9.9e-7,"MEAN_MOTION_DDOT":0},{"OBJECT_NAME":"ONEWEB-0218","OBJECT_ID":"2021-031E","EPOCH":"2026-03-03T18:06:09.272736","MEAN_MOTION":13.14501488,"ECCENTRICITY":0.00022853,"INCLINATION":87.9003,"RA_OF_ASC_NODE":310.7281,"ARG_OF_PERICENTER":99.1151,"MEAN_ANOMALY":261.0237,"EPHEMERIS_TYPE":0,"CLASSIFICATION_TYPE":"U","NORAD_CAT_ID":48214,"ELEMENT_SET_NO":999,"REV_AT_EPOCH":23452,"BSTAR":0.00065914299,"MEAN_MOTION_DOT":2.57e-6,"MEAN_MOTION_DDOT":0},{"OBJECT_NAME":"ONEWEB-0209","OBJECT_ID":"2021-031F","EPOCH":"2026-03-03T17:50:09.490560","MEAN_MOTION":13.14502195,"ECCENTRICITY":0.00018518,"INCLINATION":87.8989,"RA_OF_ASC_NODE":310.7578,"ARG_OF_PERICENTER":75.8718,"MEAN_ANOMALY":284.2617,"EPHEMERIS_TYPE":0,"CLASSIFICATION_TYPE":"U","NORAD_CAT_ID":48215,"ELEMENT_SET_NO":999,"REV_AT_EPOCH":23452,"BSTAR":0.00060549445,"MEAN_MOTION_DOT":2.37e-6,"MEAN_MOTION_DDOT":0}]
